M2 PATHFINDER           
1 45727U 20037E   26192.98386683  .00001014  00000+0  76319-4 0  9993
2 45727  97.8148  24.4958 0013143  72.3755 287.8905 15.04785685329223
NETSAT-4                
1 46504U 20068U   26193.00689132  .00010683  00000+0  23103-3 0  9994
2 46504  97.8606 203.2566 0004401 205.4118 154.6913 15.44684583319607
NETSAT-3                
1 46505U 20068V   26192.57811234  .00011149  00000+0  25064-3 0  9992
2 46505  97.8654 200.9796 0003376 227.4367 132.6595 15.43525225319440
NETSAT-1                
1 46506U 20068W   26192.58232285  .00007156  00000+0  21210-3 0  9999
2 46506  97.8751 195.0226 0002439 285.6031  74.4941 15.35191564319044
NETSAT-2                
1 46507U 20068X   26193.01070929  .00014394  00000+0  28629-3 0  9997
2 46507  97.8613 203.2505 0001752 224.2468 135.8640 15.47067543319572
GREENCUBE (IO-117)      
1 53109U 22080E   26192.30794326 -.00000003  00000+0  00000+0 0  9996
2 53109  70.1420 289.8580 0009046 284.3679  75.5976  6.42583311 93613
SITRO-AIS 5 (KATYS)     
1 57176U 23091L   26193.18840279  .00007476  00000+0  25950-3 0  9998
2 57176  97.5054 257.3329 0010974  22.9722 337.2006 15.30022007168167
SITRO-AIS 6 (CHIRKIN)   
1 57192U 23091AC  26193.16023759  .00005738  00000+0  22296-3 0  9999
2 57192  97.5061 256.2894 0011497  26.9592 333.2242 15.26402165168090
SITRO-AIS 8 (ANOKHIN)   
1 57193U 23091AD  26193.16089054  .00008407  00000+0  26751-3 0  9996
2 57193  97.5051 258.9975 0009841  18.9821 341.1786 15.32805109168278
SITRO-AIS 7 (FARTUSHNIY)
1 57194U 23091AE  26193.16858484  .00005514  00000+0  21650-3 0  9997
2 57194  97.5057 256.1095 0011456  28.1035 332.0820 15.26077550168084
SITRO-AIS 10 (BURDAEV)  
1 57199U 23091AK  26193.15029021  .00013058  00000+0  33402-3 0  9998
2 57199  97.5076 264.3037 0005112 354.2328   5.8857 15.39551739168600
SITRO-AIS 9 (SHCHUKIN)  
1 57201U 23091AM  26193.18481197  .00011406  00000+0  29702-3 0  9994
2 57201  97.5074 264.0490 0005383 354.2538   5.8644 15.39037978168591
SITRO-AIS 12 (SMIRENNIY)
1 57204U 23091AQ  26193.17067451  .00011578  00000+0  29858-3 0  9991
2 57204  97.5088 264.5175 0004926 347.3350  12.7770 15.39333844168612
SITRO-AIS 11 (SHEFFER)  
1 57208U 23091AU  26193.17706148  .00011662  00000+0  29643-3 0  9994
2 57208  97.5086 264.7867 0004819 346.5790  13.5327 15.39775777168638
SITRO-AIS 25            
1 59066U 24039R   26193.16500319  .00001705  00000+0  13498-3 0  9990
2 59066  95.3895 252.2568 0142563 240.2365 118.4617 14.93631735128450
SITRO-AIS 26            
1 59067U 24039S   26193.16981534  .00001717  00000+0  13659-3 0  9995
2 59067  95.3895 252.1526 0142905 240.8400 117.8463 14.93423755128442
SITRO-AIS 27            
1 59068U 24039T   26193.20000816  .00001595  00000+0  12596-3 0  9999
2 59068  95.3899 252.4568 0141971 239.2757 119.4420 14.93849158128478
SITRO-AIS 28            
1 59071U 24039U   26193.17689444  .00001953  00000+0  15346-3 0  9993
2 59071  95.3898 252.4896 0141881 239.1862 119.5338 14.93881995128475
GRBBETA                 
1 60237U 24128C   26192.31053904  .00002233  00000+0  16151-3 0  9996
2 60237  61.9892 131.6189 0037524 139.8192 220.5686 15.06792341109904
OOV-CUBE (TUBSAT-30)    
1 60240U 24128F   26193.00684617  .00001128  00000+0  97999-4 0  9990
2 60240  61.9937 139.0215 0041539 139.3002 221.1206 15.02865918109841
ROBUSTA-3A (MEDITERRAN*)
1 60243U 24128J   26193.20243965  .00004555  00000+0  27269-3 0  9991
2 60243  61.9861 119.7630 0038345 133.3943 227.0356 15.11959618110209
LASARSAT                
1 62391U 24247Q   26193.15749845  .00022599  00000+0  42947-3 0  9999
2 62391  44.9749 121.7341 0006857 144.6843 215.4503 15.47903686 87188
CROCUBE                 
1 62394U 24247T   26192.99415519  .00027505  00000+0  48357-3 0  9994
2 62394  44.9710 119.5598 0007111 151.4754 208.6527 15.50022679 87198
FORESAIL-1 PRIME        
1 66778U 25276DS  26193.16385043  .00002869  00000+0  14066-3 0  9991
2 66778  97.4195 265.9794 0003123  51.5125 308.6390 15.18922403 34192
KNACKSAT-2              
1 67683U 98067XZ  26192.35673257  .00035473  00000+0  40006-3 0  9992
2 67683  51.6254 172.7064 0008193 314.9456  45.0873 15.62129323 24057
